{
"type": "FeatureCollection",
"name": "risk_zones",
"crs": { "type": "name", "properties": { "name": "urn:ogc:def:crs:OGC:1.3:CRS84" } },
"features": [
{"type":"Feature","properties":{"fid":1,"zone_name":"West Kowloon Dense Area","zone_type":"Population","risk_level":5},"geometry":{"type":"Polygon","coordinates":[[[114.16074245193137,22.306799351988712],[114.16354855761513,22.306594809849109],[114.163446517408445,22.302645514424913],[114.159152325377249,22.302881531232973],[114.16074245193137,22.306799351988712]]]}},
{"type":"Feature","properties":{"fid":2,"zone_name":"School Sensitive Zone","zone_type":"Sensitive Facility","risk_level":4},"geometry":{"type":"Polygon","coordinates":[[[114.134560635566885,22.28508474558047],[114.140649034565556,22.284360867257654],[114.140070806727707,22.280835840994573],[114.132962005662222,22.283007519470189],[114.134560635566885,22.28508474558047]]]}},
{"type":"Feature","properties":{"fid":3,"zone_name":"Restricted Area","zone_type":"Restricted","risk_level":5},"geometry":{"type":"Polygon","coordinates":[[[114.16261549773418,22.313578257071153],[114.16580776017571,22.313678935162773],[114.165989138723518,22.311564679992202],[114.162724324862879,22.311900278188723],[114.16261549773418,22.313578257071153]]]}},
{"type":"Feature","properties":{"fid":4,"zone_name":"Preferred Coastal Corridor","zone_type":"Preferred Corridor","risk_level":1},"geometry":{"type":"Polygon","coordinates":[[[114.134792028499461,22.290218978005299],[114.146545358397816,22.291158794520317],[114.145892395625694,22.289816197564338],[114.134719477080353,22.289144894250086],[114.134792028499461,22.290218978005299]]]}}
]
}
