{
"type": "FeatureCollection",
"name": "routes",
"crs": { "type": "name", "properties": { "name": "urn:ogc:def:crs:OGC:1.3:CRS84" } },
"features": [
{"type":"Feature","properties":{"route_name":"Fastest Drone Route"},"geometry":{"type":"LineString","coordinates":[[114.1354534873755,22.283928112122439],[114.180878386049898,22.323995554069381]]}},
{"type":"Feature","properties":{"route_name":"Green Corridor"},"geometry":{"type":"LineString","coordinates":[[114.135419473973229,22.283841560934643],[114.134467098710871,22.289506616560875],[114.145215333814676,22.290261939964839],[114.153922764784852,22.301213670574594],[114.156779890571926,22.304108812206298],[114.159773069967926,22.30687802196266],[114.159909123576838,22.315185321751063],[114.159637016359028,22.317576725513181],[114.180317164913191,22.323743840864459]]}},
{"type":"Feature","properties":{"route_name":"Ground Route"},"geometry":{"type":"LineString","coordinates":[[114.135487500777671,22.283904507258345],[114.13586164820218,22.285352264881681],[114.135215393559861,22.285761411058086],[114.135487500777671,22.287712707117979],[114.137188170889019,22.287901540775064],[114.139943256469451,22.28887717727293],[114.140623524513998,22.290104581258948],[114.141745966787482,22.29019899650374],[114.145181320412433,22.289128953328238],[114.158565594188843,22.303227688496762],[114.161014559149223,22.308357009224206],[114.160470344713545,22.31134640373169],[114.161150612758121,22.312479210191498],[114.163939711740738,22.311912808110481],[114.171286606621848,22.313077076561932],[114.177664119539443,22.321478401587392],[114.181133486566594,22.322988698525258]]}}
]
}
